{
  "type": "FeatureCollection",
  "features": [
    {
      "type": "Feature",
      "properties": {
        "norad_id": 40069,
        "name": "METEOR-M 2",
        "group": "weather",
        "lat": -68.75769243726056,
        "lon": 119.0740472871641,
        "alt_km": 824.9345680003134,
        "timestamp": "2025-12-09T23:33:23.489857+00:00",
        "meta_object_name": "METEOR-M 2",
        "meta_object_id": "2014-037A",
        "meta_epoch": "2025-12-09T15:37:26.560704",
        "meta_mean_motion": 14.21383556,
        "meta_eccentricity": 0.00048438,
        "meta_inclination": 98.49,
        "meta_ra_of_asc_node": 321.3535,
        "meta_arg_of_pericenter": 220.3545,
        "meta_mean_anomaly": 139.7274,
        "meta_ephemeris_type": 0,
        "meta_classification_type": "U",
        "meta_norad_cat_id": 40069,
        "meta_element_set_no": 999,
        "meta_rev_at_epoch": 59239,
        "meta_bstar": 6.1953091e-05,
        "meta_mean_motion_dot": 9.3e-07,
        "meta_mean_motion_ddot": 0,
        "tle_line1": "1 40069U 14037A   25343.65100186  .00000093  00000+0  61953-4 0  9997",
        "tle_line2": "2 40069  98.4900 321.3535 0004843 220.3545 139.7274 14.21383556592392"
      },
      "geometry": {
        "type": "Point",
        "coordinates": [
          119.0740472871641,
          -68.75769243726056
        ]
      }
    },
    {
      "type": "Feature",
      "properties": {
        "norad_id": 40267,
        "name": "HIMAWARI-8",
        "group": "weather",
        "lat": -0.018700862866973113,
        "lon": -147.04510675991642,
        "alt_km": 35785.92371734909,
        "timestamp": "2025-12-09T23:33:23.489870+00:00",
        "meta_object_name": "HIMAWARI-8",
        "meta_object_id": "2014-060A",
        "meta_epoch": "2025-12-09T12:31:51.169728",
        "meta_mean_motion": 1.00270627,
        "meta_eccentricity": 0.00012561,
        "meta_inclination": 0.0332,
        "meta_ra_of_asc_node": 216.1327,
        "meta_arg_of_pericenter": 81.2456,
        "meta_mean_anomaly": 109.7586,
        "meta_ephemeris_type": 0,
        "meta_classification_type": "U",
        "meta_norad_cat_id": 40267,
        "meta_element_set_no": 999,
        "meta_rev_at_epoch": 4085,
        "meta_bstar": 0,
        "meta_mean_motion_dot": -2.73e-06,
        "meta_mean_motion_ddot": 0,
        "tle_line1": "1 40267U 14060A   25343.52212002 -.00000273  00000+0  00000+0 0  9992",
        "tle_line2": "2 40267   0.0332 216.1327 0001256  81.2456 109.7586  1.00270627 40859"
      },
      "geometry": {
        "type": "Point",
        "coordinates": [
          -147.04510675991642,
          -0.018700862866973113
        ]
      }
    },
    {
      "type": "Feature",
      "properties": {
        "norad_id": 40367,
        "name": "FENGYUN 2G",
        "group": "weather",
        "lat": 5.125974572931057,
        "lon": 171.90674103828016,
        "alt_km": 35789.79020215679,
        "timestamp": "2025-12-09T23:33:23.489882+00:00",
        "meta_object_name": "FENGYUN 2G",
        "meta_object_id": "2014-090A",
        "meta_epoch": "2025-12-08T17:30:10.330272",
        "meta_mean_motion": 1.00265504,
        "meta_eccentricity": 0.0003085,
        "meta_inclination": 5.1581,
        "meta_ra_of_asc_node": 75.1439,
        "meta_arg_of_pericenter": 197.6958,
        "meta_mean_anomaly": 167.0613,
        "meta_ephemeris_type": 0,
        "meta_classification_type": "U",
        "meta_norad_cat_id": 40367,
        "meta_element_set_no": 999,
        "meta_rev_at_epoch": 4009,
        "meta_bstar": 0,
        "meta_mean_motion_dot": -3e-06,
        "meta_mean_motion_ddot": 0,
        "tle_line1": "1 40367U 14090A   25342.72928623 -.00000300  00000+0  00000+0 0  9991",
        "tle_line2": "2 40367   5.1581  75.1439 0003085 197.6958 167.0613  1.00265504 40092"
      },
      "geometry": {
        "type": "Point",
        "coordinates": [
          171.90674103828016,
          5.125974572931057
        ]
      }
    },
    {
      "type": "Feature",
      "properties": {
        "norad_id": 40732,
        "name": "METEOSAT-11 (MSG-4)",
        "group": "weather",
        "lat": 0.4761125415911643,
        "lon": 81.62611106459119,
        "alt_km": 35789.02302007258,
        "timestamp": "2025-12-09T23:33:23.489895+00:00",
        "meta_object_name": "METEOSAT-11 (MSG-4)",
        "meta_object_id": "2015-034A",
        "meta_epoch": "2025-12-09T05:03:28.023264",
        "meta_mean_motion": 1.00266394,
        "meta_eccentricity": 9.7e-05,
        "meta_inclination": 2.7265,
        "meta_ra_of_asc_node": 72.0117,
        "meta_arg_of_pericenter": 121.8112,
        "meta_mean_anomaly": 329.5993,
        "meta_ephemeris_type": 0,
        "meta_classification_type": "U",
        "meta_norad_cat_id": 40732,
        "meta_element_set_no": 999,
        "meta_rev_at_epoch": 531,
        "meta_bstar": 0,
        "meta_mean_motion_dot": 6.3e-07,
        "meta_mean_motion_ddot": 0,
        "tle_line1": "1 40732U 15034A   25343.21074101  .00000063  00000+0  00000+0 0  9999",
        "tle_line2": "2 40732   2.7265  72.0117 0000970 121.8112 329.5993  1.00266394  5310"
      },
      "geometry": {
        "type": "Point",
        "coordinates": [
          81.62611106459119,
          0.4761125415911643
        ]
      }
    },
    {
      "type": "Feature",
      "properties": {
        "norad_id": 41105,
        "name": "ELEKTRO-L 2",
        "group": "weather",
        "lat": -1.592122504301821,
        "lon": 57.91592316695183,
        "alt_km": 35799.76415109122,
        "timestamp": "2025-12-09T23:33:23.489908+00:00",
        "meta_object_name": "ELEKTRO-L 2",
        "meta_object_id": "2015-074A",
        "meta_epoch": "2025-12-09T01:31:10.511904",
        "meta_mean_motion": 1.00271905,
        "meta_eccentricity": 0.00038363,
        "meta_inclination": 6.2161,
        "meta_ra_of_asc_node": 72.8685,
        "meta_arg_of_pericenter": 198.9202,
        "meta_mean_anomaly": 174.5582,
        "meta_ephemeris_type": 0,
        "meta_classification_type": "U",
        "meta_norad_cat_id": 41105,
        "meta_element_set_no": 999,
        "meta_rev_at_epoch": 3660,
        "meta_bstar": 0,
        "meta_mean_motion_dot": -1.16e-06,
        "meta_mean_motion_ddot": 0,
        "tle_line1": "1 41105U 15074A   25343.06331611 -.00000116  00000+0  00000+0 0  9993",
        "tle_line2": "2 41105   6.2161  72.8685 0003836 198.9202 174.5582  1.00271905 36608"
      },
      "geometry": {
        "type": "Point",
        "coordinates": [
          57.91592316695183,
          -1.592122504301821
        ]
      }
    },
    {
      "type": "Feature",
      "properties": {
        "norad_id": 41752,
        "name": "INSAT-3DR",
        "group": "weather",
        "lat": 0.07710097002653934,
        "lon": 146.1751754491835,
        "alt_km": 35820.72833425658,
        "timestamp": "2025-12-09T23:33:23.489938+00:00",
        "meta_object_name": "INSAT-3DR",
        "meta_object_id": "2016-054A",
        "meta_epoch": "2025-12-09T13:55:35.649408",
        "meta_mean_motion": 1.00270371,
        "meta_eccentricity": 0.00145029,
        "meta_inclination": 0.0843,
        "meta_ra_of_asc_node": 86.6157,
        "meta_arg_of_pericenter": 183.633,
        "meta_mean_anomaly": 91.2251,
        "meta_ephemeris_type": 0,
        "meta_classification_type": "U",
        "meta_norad_cat_id": 41752,
        "meta_element_set_no": 999,
        "meta_rev_at_epoch": 3391,
        "meta_bstar": 0,
        "meta_mean_motion_dot": -7.4e-07,
        "meta_mean_motion_ddot": 0,
        "tle_line1": "1 41752U 16054A   25343.58027372 -.00000074  00000+0  00000+0 0  9996",
        "tle_line2": "2 41752   0.0843  86.6157 0014502 183.6330  91.2251  1.00270371 33912"
      },
      "geometry": {
        "type": "Point",
        "coordinates": [
          146.1751754491835,
          0.07710097002653934
        ]
      }
    },
    {
      "type": "Feature",
      "properties": {
        "norad_id": 41836,
        "name": "HIMAWARI-9",
        "group": "weather",
        "lat": -0.00036103406017095203,
        "lon": -146.93517306032606,
        "alt_km": 35783.21485441472,
        "timestamp": "2025-12-09T23:33:23.489955+00:00",
        "meta_object_name": "HIMAWARI-9",
        "meta_object_id": "2016-064A",
        "meta_epoch": "2025-12-09T12:31:51.169728",
        "meta_mean_motion": 1.00270181,
        "meta_eccentricity": 0.00012997,
        "meta_inclination": 0.0229,
        "meta_ra_of_asc_node": 74.0155,
        "meta_arg_of_pericenter": 191.3363,
        "meta_mean_anomaly": 141.8932,
        "meta_ephemeris_type": 0,
        "meta_classification_type": "U",
        "meta_norad_cat_id": 41836,
        "meta_element_set_no": 999,
        "meta_rev_at_epoch": 3330,
        "meta_bstar": 0,
        "meta_mean_motion_dot": -2.73e-06,
        "meta_mean_motion_ddot": 0,
        "tle_line1": "1 41836U 16064A   25343.52212002 -.00000273  00000+0  00000+0 0  9991",
        "tle_line2": "2 41836   0.0229  74.0155 0001299 191.3363 141.8932  1.00270181 33303"
      },
      "geometry": {
        "type": "Point",
        "coordinates": [
          -146.93517306032606,
          -0.00036103406017095203
        ]
      }
    }
  ]
}